{
  "links" : {
    "next" : "https://api.nasa.gov/neo/rest/v1/feed?start_date=1995-04-09&end_date=1995-04-09&detailed=true&api_key=t0TVs3DtDT2H8Oy2Zy8m2eVrNsAVKAexjcZXUckd",
    "prev" : "https://api.nasa.gov/neo/rest/v1/feed?start_date=1995-04-07&end_date=1995-04-07&detailed=true&api_key=t0TVs3DtDT2H8Oy2Zy8m2eVrNsAVKAexjcZXUckd",
    "self" : "https://api.nasa.gov/neo/rest/v1/feed?start_date=1995-04-08&end_date=1995-04-08&detailed=true&api_key=t0TVs3DtDT2H8Oy2Zy8m2eVrNsAVKAexjcZXUckd"
  },
  "element_count" : 4,
  "near_earth_objects" : {
    "1995-04-08" : [ {
      "links" : {
        "self" : "https://api.nasa.gov/neo/rest/v1/neo/2312942?api_key=t0TVs3DtDT2H8Oy2Zy8m2eVrNsAVKAexjcZXUckd"
      },
      "neo_reference_id" : "2312942",
      "name" : "312942 (1995 EK1)",
      "nasa_jpl_url" : "http://ssd.jpl.nasa.gov/sbdb.cgi?sstr=2312942",
      "absolute_magnitude_h" : 17.3,
      "estimated_diameter" : {
        "kilometers" : {
          "estimated_diameter_min" : 0.9216265485,
          "estimated_diameter_max" : 2.0608196123
        },
        "meters" : {
          "estimated_diameter_min" : 921.6265485028,
          "estimated_diameter_max" : 2060.8196123208
        },
        "miles" : {
          "estimated_diameter_min" : 0.5726720101,
          "estimated_diameter_max" : 1.2805335433
        },
        "feet" : {
          "estimated_diameter_min" : 3023.70924539,
          "estimated_diameter_max" : 6761.2194168867
        }
      },
      "is_potentially_hazardous_asteroid" : false,
      "close_approach_data" : [ {
        "close_approach_date" : "1995-04-08",
        "epoch_date_close_approach" : 797324400000,
        "relative_velocity" : {
          "kilometers_per_second" : "22.9603499373",
          "kilometers_per_hour" : "82657.2597742512",
          "miles_per_hour" : "51360.0067747285"
        },
        "miss_distance" : {
          "astronomical" : "0.086732912",
          "lunar" : "33.7391014099",
          "kilometers" : "12975059",
          "miles" : "8062327.5"
        },
        "orbiting_body" : "Earth"
      } ],
      "orbital_data" : {
        "orbit_id" : "69",
        "orbit_determination_date" : "2017-04-06 09:23:51",
        "orbit_uncertainty" : "0",
        "minimum_orbit_intersection" : ".0591071",
        "jupiter_tisserand_invariant" : "3.120",
        "epoch_osculation" : "2458000.5",
        "eccentricity" : ".7766438887734538",
        "semi_major_axis" : "2.26319603381811",
        "inclination" : "9.064507173740575",
        "ascending_node_longitude" : "352.6914107643232",
        "orbital_period" : "1243.602787733987",
        "perihelion_distance" : ".5054986650569561",
        "perihelion_argument" : "299.7393341963947",
        "aphelion_distance" : "4.020893402579265",
        "perihelion_time" : "2458582.732961673643",
        "mean_anomaly" : "191.4543290913346",
        "mean_motion" : ".2894814996804316",
        "equinox" : "J2000"
      }
    }, {
      "links" : {
        "self" : "https://api.nasa.gov/neo/rest/v1/neo/3170221?api_key=t0TVs3DtDT2H8Oy2Zy8m2eVrNsAVKAexjcZXUckd"
      },
      "neo_reference_id" : "3170221",
      "name" : "(2003 YN107)",
      "nasa_jpl_url" : "http://ssd.jpl.nasa.gov/sbdb.cgi?sstr=3170221",
      "absolute_magnitude_h" : 26.5,
      "estimated_diameter" : {
        "kilometers" : {
          "estimated_diameter_min" : 0.0133215567,
          "estimated_diameter_max" : 0.0297879063
        },
        "meters" : {
          "estimated_diameter_min" : 13.3215566698,
          "estimated_diameter_max" : 29.7879062798
        },
        "miles" : {
          "estimated_diameter_min" : 0.008277629,
          "estimated_diameter_max" : 0.0185093411
        },
        "feet" : {
          "estimated_diameter_min" : 43.7058959846,
          "estimated_diameter_max" : 97.7293544391
        }
      },
      "is_potentially_hazardous_asteroid" : false,
      "close_approach_data" : [ {
        "close_approach_date" : "1995-04-08",
        "epoch_date_close_approach" : 797324400000,
        "relative_velocity" : {
          "kilometers_per_second" : "7.5164621883",
          "kilometers_per_hour" : "27059.2638778848",
          "miles_per_hour" : "16813.5742690112"
        },
        "miss_distance" : {
          "astronomical" : "0.2360511039",
          "lunar" : "91.8238754272",
          "kilometers" : "35312740",
          "miles" : "21942320"
        },
        "orbiting_body" : "Earth"
      } ],
      "orbital_data" : {
        "orbit_id" : "17",
        "orbit_determination_date" : "2017-04-06 09:13:21",
        "orbit_uncertainty" : "1",
        "minimum_orbit_intersection" : ".00576149",
        "jupiter_tisserand_invariant" : "6.132",
        "epoch_osculation" : "2458000.5",
        "eccentricity" : ".01394849751423765",
        "semi_major_axis" : ".988667858326567",
        "inclination" : "4.320908199813253",
        "ascending_node_longitude" : "264.4056022167966",
        "orbital_period" : "359.0658068186285",
        "perihelion_distance" : ".9748774271622922",
        "perihelion_argument" : "87.81644303895897",
        "aphelion_distance" : "1.002458289490842",
        "perihelion_time" : "2457942.407117798018",
        "mean_anomaly" : "58.24402434197092",
        "mean_motion" : "1.00260173250594",
        "equinox" : "J2000"
      }
    }, {
      "links" : {
        "self" : "https://api.nasa.gov/neo/rest/v1/neo/3601408?api_key=t0TVs3DtDT2H8Oy2Zy8m2eVrNsAVKAexjcZXUckd"
      },
      "neo_reference_id" : "3601408",
      "name" : "(2012 FJ)",
      "nasa_jpl_url" : "http://ssd.jpl.nasa.gov/sbdb.cgi?sstr=3601408",
      "absolute_magnitude_h" : 18.8,
      "estimated_diameter" : {
        "kilometers" : {
          "estimated_diameter_min" : 0.4619074603,
          "estimated_diameter_max" : 1.0328564805
        },
        "meters" : {
          "estimated_diameter_min" : 461.9074602816,
          "estimated_diameter_max" : 1032.8564805039
        },
        "miles" : {
          "estimated_diameter_min" : 0.2870159005,
          "estimated_diameter_max" : 0.6417870641
        },
        "feet" : {
          "estimated_diameter_min" : 1515.4444719902,
          "estimated_diameter_max" : 3388.6368554964
        }
      },
      "is_potentially_hazardous_asteroid" : false,
      "close_approach_data" : [ {
        "close_approach_date" : "1995-04-08",
        "epoch_date_close_approach" : 797324400000,
        "relative_velocity" : {
          "kilometers_per_second" : "21.5347344882",
          "kilometers_per_hour" : "77525.044157425",
          "miles_per_hour" : "48171.0475765955"
        },
        "miss_distance" : {
          "astronomical" : "0.4674758318",
          "lunar" : "181.8480987549",
          "kilometers" : "69933392",
          "miles" : "43454592"
        },
        "orbiting_body" : "Earth"
      } ],
      "orbital_data" : {
        "orbit_id" : "36",
        "orbit_determination_date" : "2017-04-06 08:50:28",
        "orbit_uncertainty" : "1",
        "minimum_orbit_intersection" : ".264451",
        "jupiter_tisserand_invariant" : "3.214",
        "epoch_osculation" : "2458000.5",
        "eccentricity" : ".4445997797497422",
        "semi_major_axis" : "2.250574629195569",
        "inclination" : "40.07490632410602",
        "ascending_node_longitude" : "190.8023227140372",
        "orbital_period" : "1233.214308376651",
        "perihelion_distance" : "1.249969644744861",
        "perihelion_argument" : "16.17455002900164",
        "aphelion_distance" : "3.251179613646277",
        "perihelion_time" : "2458488.263585525880",
        "mean_anomaly" : "217.6120228280012",
        "mean_motion" : ".2919200641402612",
        "equinox" : "J2000"
      }
    }, {
      "links" : {
        "self" : "https://api.nasa.gov/neo/rest/v1/neo/3772759?api_key=t0TVs3DtDT2H8Oy2Zy8m2eVrNsAVKAexjcZXUckd"
      },
      "neo_reference_id" : "3772759",
      "name" : "(2017 FW90)",
      "nasa_jpl_url" : "http://ssd.jpl.nasa.gov/sbdb.cgi?sstr=3772759",
      "absolute_magnitude_h" : 28.15,
      "estimated_diameter" : {
        "kilometers" : {
          "estimated_diameter_min" : 0.0062309602,
          "estimated_diameter_max" : 0.0139328506
        },
        "meters" : {
          "estimated_diameter_min" : 6.2309601911,
          "estimated_diameter_max" : 13.9328505524
        },
        "miles" : {
          "estimated_diameter_min" : 0.003871738,
          "estimated_diameter_max" : 0.0086574693
        },
        "feet" : {
          "estimated_diameter_min" : 20.4427834334,
          "estimated_diameter_max" : 45.7114534065
        }
      },
      "is_potentially_hazardous_asteroid" : false,
      "close_approach_data" : [ {
        "close_approach_date" : "1995-04-08",
        "epoch_date_close_approach" : 797324400000,
        "relative_velocity" : {
          "kilometers_per_second" : "13.5922329378",
          "kilometers_per_hour" : "48932.0385761632",
          "miles_per_hour" : "30404.4658586165"
        },
        "miss_distance" : {
          "astronomical" : "0.3228583667",
          "lunar" : "125.5919036865",
          "kilometers" : "48298924",
          "miles" : "30011560"
        },
        "orbiting_body" : "Earth"
      } ],
      "orbital_data" : {
        "orbit_id" : "14",
        "orbit_determination_date" : "2017-05-08 14:22:55",
        "orbit_uncertainty" : "4",
        "minimum_orbit_intersection" : "4.42295E-5",
        "jupiter_tisserand_invariant" : "5.916",
        "epoch_osculation" : "2458000.5",
        "eccentricity" : ".1458940283310568",
        "semi_major_axis" : "1.033210407631443",
        "inclination" : "3.174319580769291",
        "ascending_node_longitude" : "10.44411032877468",
        "orbital_period" : "383.6026380708879",
        "perihelion_distance" : ".8824711791485181",
        "perihelion_argument" : "85.73153235954244",
        "aphelion_distance" : "1.183949636114367",
        "perihelion_time" : "2458145.012052374404",
        "mean_anomaly" : "224.3796113696917",
        "mean_motion" : ".9384711268160616",
        "equinox" : "J2000"
      }
    } ]
  }
}